IRIDIUM 63              
1 25286U 98021B   25116.91233525  .00000878  00000+0  29268-3 0  9990
2 25286  86.3936 103.6465 0002455  88.4265 271.7213 14.36498434416486
IRIDIUM 69              
1 25319U 98026A   25117.08203264  .00000998  00000+0  30514-3 0  9997
2 25319  86.3936 117.0231 0002898 140.9434 219.1975 14.40911983415941
IRIDIUM 71              
1 25320U 98026B   25116.95684363  .00000901  00000+0  27392-3 0  9991
2 25320  86.3930 111.7743 0000543 154.7400 205.3826 14.41107521416216
IRIDIUM 73              
1 25344U 98032C   25116.91602750  .00001431  00000+0  35222-3 0  9990
2 25344  86.4403  68.5874 0002557 101.7849 258.3643 14.51643701423127
IRIDIUM 82              
1 25467U 98051A   25116.91429434  .00035549  00000+0  10867-2 0  9997
2 25467  86.3655 134.8988 0093001 130.0311 230.9145 15.29464766416119
