<?xml version="1.0" encoding="UTF-8"?>
<ndm xmlns:xsi="http://www.w3.org/2001/XMLSchema-instance" xsi:noNamespaceSchemaLocation="https://sanaregistry.org/r/ndmxml_unqualified/ndmxml-2.0.0-master-2.0.xsd">
<omm id="CCSDS_OMM_VERS" version="2.0">
<header><CREATION_DATE/><ORIGINATOR/></header><body><segment><metadata><OBJECT_NAME>IRIDIUM 63</OBJECT_NAME><OBJECT_ID>1998-021B</OBJECT_ID><CENTER_NAME>EARTH</CENTER_NAME><REF_FRAME>TEME</REF_FRAME><TIME_SYSTEM>UTC</TIME_SYSTEM><MEAN_ELEMENT_THEORY>SGP4</MEAN_ELEMENT_THEORY></metadata><data><meanElements><EPOCH>2025-04-26T21:53:45.765600</EPOCH><MEAN_MOTION>14.36498434</MEAN_MOTION><ECCENTRICITY>.0002455</ECCENTRICITY><INCLINATION>86.3936</INCLINATION><RA_OF_ASC_NODE>103.6465</RA_OF_ASC_NODE><ARG_OF_PERICENTER>88.4265</ARG_OF_PERICENTER><MEAN_ANOMALY>271.7213</MEAN_ANOMALY></meanElements><tleParameters><EPHEMERIS_TYPE>0</EPHEMERIS_TYPE><CLASSIFICATION_TYPE>U</CLASSIFICATION_TYPE><NORAD_CAT_ID>25286</NORAD_CAT_ID><ELEMENT_SET_NO>999</ELEMENT_SET_NO><REV_AT_EPOCH>41648</REV_AT_EPOCH><BSTAR>.29268E-3</BSTAR><MEAN_MOTION_DOT>.878E-5</MEAN_MOTION_DOT><MEAN_MOTION_DDOT>0</MEAN_MOTION_DDOT></tleParameters></data></segment></body></omm>
<omm id="CCSDS_OMM_VERS" version="2.0">
<header><CREATION_DATE/><ORIGINATOR/></header><body><segment><metadata><OBJECT_NAME>IRIDIUM 69</OBJECT_NAME><OBJECT_ID>1998-026A</OBJECT_ID><CENTER_NAME>EARTH</CENTER_NAME><REF_FRAME>TEME</REF_FRAME><TIME_SYSTEM>UTC</TIME_SYSTEM><MEAN_ELEMENT_THEORY>SGP4</MEAN_ELEMENT_THEORY></metadata><data><meanElements><EPOCH>2025-04-27T01:58:07.620096</EPOCH><MEAN_MOTION>14.40911983</MEAN_MOTION><ECCENTRICITY>.0002898</ECCENTRICITY><INCLINATION>86.3936</INCLINATION><RA_OF_ASC_NODE>117.0231</RA_OF_ASC_NODE><ARG_OF_PERICENTER>140.9434</ARG_OF_PERICENTER><MEAN_ANOMALY>219.1975</MEAN_ANOMALY></meanElements><tleParameters><EPHEMERIS_TYPE>0</EPHEMERIS_TYPE><CLASSIFICATION_TYPE>U</CLASSIFICATION_TYPE><NORAD_CAT_ID>25319</NORAD_CAT_ID><ELEMENT_SET_NO>999</ELEMENT_SET_NO><REV_AT_EPOCH>41594</REV_AT_EPOCH><BSTAR>.30514E-3</BSTAR><MEAN_MOTION_DOT>.998E-5</MEAN_MOTION_DOT><MEAN_MOTION_DDOT>0</MEAN_MOTION_DDOT></tleParameters></data></segment></body></omm>
<omm id="CCSDS_OMM_VERS" version="2.0">
<header><CREATION_DATE/><ORIGINATOR/></header><body><segment><metadata><OBJECT_NAME>IRIDIUM 71</OBJECT_NAME><OBJECT_ID>1998-026B</OBJECT_ID><CENTER_NAME>EARTH</CENTER_NAME><REF_FRAME>TEME</REF_FRAME><TIME_SYSTEM>UTC</TIME_SYSTEM><MEAN_ELEMENT_THEORY>SGP4</MEAN_ELEMENT_THEORY></metadata><data><meanElements><EPOCH>2025-04-26T22:57:51.289632</EPOCH><MEAN_MOTION>14.41107521</MEAN_MOTION><ECCENTRICITY>.0000543</ECCENTRICITY><INCLINATION>86.3930</INCLINATION><RA_OF_ASC_NODE>111.7743</RA_OF_ASC_NODE><ARG_OF_PERICENTER>154.7400</ARG_OF_PERICENTER><MEAN_ANOMALY>205.3826</MEAN_ANOMALY></meanElements><tleParameters><EPHEMERIS_TYPE>0</EPHEMERIS_TYPE><CLASSIFICATION_TYPE>U</CLASSIFICATION_TYPE><NORAD_CAT_ID>25320</NORAD_CAT_ID><ELEMENT_SET_NO>999</ELEMENT_SET_NO><REV_AT_EPOCH>41621</REV_AT_EPOCH><BSTAR>.27392E-3</BSTAR><MEAN_MOTION_DOT>.901E-5</MEAN_MOTION_DOT><MEAN_MOTION_DDOT>0</MEAN_MOTION_DDOT></tleParameters></data></segment></body></omm>
<omm id="CCSDS_OMM_VERS" version="2.0">
<header><CREATION_DATE/><ORIGINATOR/></header><body><segment><metadata><OBJECT_NAME>IRIDIUM 73</OBJECT_NAME><OBJECT_ID>1998-032C</OBJECT_ID><CENTER_NAME>EARTH</CENTER_NAME><REF_FRAME>TEME</REF_FRAME><TIME_SYSTEM>UTC</TIME_SYSTEM><MEAN_ELEMENT_THEORY>SGP4</MEAN_ELEMENT_THEORY></metadata><data><meanElements><EPOCH>2025-04-26T21:59:04.776000</EPOCH><MEAN_MOTION>14.51643701</MEAN_MOTION><ECCENTRICITY>.0002557</ECCENTRICITY><INCLINATION>86.4403</INCLINATION><RA_OF_ASC_NODE>68.5874</RA_OF_ASC_NODE><ARG_OF_PERICENTER>101.7849</ARG_OF_PERICENTER><MEAN_ANOMALY>258.3643</MEAN_ANOMALY></meanElements><tleParameters><EPHEMERIS_TYPE>0</EPHEMERIS_TYPE><CLASSIFICATION_TYPE>U</CLASSIFICATION_TYPE><NORAD_CAT_ID>25344</NORAD_CAT_ID><ELEMENT_SET_NO>999</ELEMENT_SET_NO><REV_AT_EPOCH>42312</REV_AT_EPOCH><BSTAR>.35222E-3</BSTAR><MEAN_MOTION_DOT>.1431E-4</MEAN_MOTION_DOT><MEAN_MOTION_DDOT>0</MEAN_MOTION_DDOT></tleParameters></data></segment></body></omm>
<omm id="CCSDS_OMM_VERS" version="2.0">
<header><CREATION_DATE/><ORIGINATOR/></header><body><segment><metadata><OBJECT_NAME>IRIDIUM 82</OBJECT_NAME><OBJECT_ID>1998-051A</OBJECT_ID><CENTER_NAME>EARTH</CENTER_NAME><REF_FRAME>TEME</REF_FRAME><TIME_SYSTEM>UTC</TIME_SYSTEM><MEAN_ELEMENT_THEORY>SGP4</MEAN_ELEMENT_THEORY></metadata><data><meanElements><EPOCH>2025-04-26T21:56:35.030976</EPOCH><MEAN_MOTION>15.29464766</MEAN_MOTION><ECCENTRICITY>.0093001</ECCENTRICITY><INCLINATION>86.3655</INCLINATION><RA_OF_ASC_NODE>134.8988</RA_OF_ASC_NODE><ARG_OF_PERICENTER>130.0311</ARG_OF_PERICENTER><MEAN_ANOMALY>230.9145</MEAN_ANOMALY></meanElements><tleParameters><EPHEMERIS_TYPE>0</EPHEMERIS_TYPE><CLASSIFICATION_TYPE>U</CLASSIFICATION_TYPE><NORAD_CAT_ID>25467</NORAD_CAT_ID><ELEMENT_SET_NO>999</ELEMENT_SET_NO><REV_AT_EPOCH>41611</REV_AT_EPOCH><BSTAR>.10867E-2</BSTAR><MEAN_MOTION_DOT>.35549E-3</MEAN_MOTION_DOT><MEAN_MOTION_DDOT>0</MEAN_MOTION_DDOT></tleParameters></data></segment></body></omm>
</ndm>
